DMSP 5D-3 F16 (USA 172) 
1 28054U 03048A   26166.97213176 -.00000001  00000+0  22889-4 0  9995
2 28054  98.9890 190.7924 0007708 143.4498 328.8182 14.14483126169317
METEOSAT-9 (MSG-2)      
1 28912U 05049B   26166.83834346  .00000118  00000+0  00000+0 0  9998
2 28912   9.3585  54.1816 0001578 343.5552 213.8225  1.00271428  6988
DMSP 5D-3 F17 (USA 191) 
1 29522U 06050A   26166.89689285  .00000019  00000+0  31888-4 0  9998
2 29522  98.7378 173.4934 0011196  62.7996 297.4317 14.14992988 12249
FENGYUN 3A              
1 32958U 08026A   26166.84910913  .00000047  00000+0  42620-4 0  9997
2 32958  98.6883 107.7072 0009531 127.1837 233.0211 14.19570837935219
GOES 14                 
1 35491U 09033A   26166.85760498 -.00000286  00000+0  00000+0 0  9990
2 35491   1.6869  83.0567 0001714  10.9792 261.4348  1.00111178  6570
DMSP 5D-3 F18 (USA 210) 
1 35951U 09057A   26166.93890259  .00000204  00000+0  12874-3 0  9990
2 35951  98.9037 147.7107 0009880 253.5128 106.4959 14.14896073859413
EWS-G2 (GOES 15)        
1 36411U 10008A   26166.75600426  .00000018  00000+0  00000+0 0  9992
2 36411   1.2741  82.8801 0005393  42.3367 114.6857  1.00275788 59626
COMS 1                  
1 36744U 10032A   26166.77574353  .00000038  00000+0  00000+0 0  9991
2 36744   4.8015  75.3707 0011453  11.7747 175.2597  0.99162489 51071
FENGYUN 3B              
1 37214U 10059A   26166.91139605 -.00000137  00000+0 -47387-4 0  9992
2 37214  98.9623 212.9203 0021837 187.6466 345.4289 14.14840935807249
SUOMI NPP               
1 37849U 11061A   26166.93082205  .00000059  00000+0  49176-4 0  9994
2 37849  98.7953 107.8155 0001607   9.7705 350.3502 14.19517118758267
METEOSAT-10 (MSG-3)     
1 38552U 12035B   26166.90073081 -.00000006  00000+0  00000+0 0  9998
2 38552   4.6688  61.0268 0001452 328.0735 199.6782  1.00276584 50842
METOP-B                 
1 38771U 12049A   26166.92258109  .00000097  00000+0  63978-4 0  9991
2 38771  98.6505 218.4470 0002308  22.7753 337.3527 14.21432422713080
INSAT-3D                
1 39216U 13038B   26166.85500497 -.00000339  00000+0  00000+0 0  9999
2 39216   1.9229  82.5552 0000549 308.7384 310.1572  1.00269716 47062
FENGYUN 3C              
1 39260U 13052A   26166.91303867  .00000059  00000+0  51260-4 0  9990
2 39260  98.4986 140.8463 0015314  31.1561 329.0518 14.15754763658384
METEOR-M 2              
1 40069U 14037A   26166.94897258 -.00000261  00000+0 -10031-3 0  9995
2 40069  98.5107 142.7310 0006808  47.4787 312.6964 14.21460252619147
HIMAWARI-8              
1 40267U 14060A   26166.85725831 -.00000274  00000+0  00000+0 0  9992
2 40267   0.0155 347.4453 0000968 100.2464 265.7211  1.00271996 42748
FENGYUN 2G              
1 40367U 14090A   26166.92960939 -.00000306  00000+0  00000+0 0  9990
2 40367   5.6350  72.8268 0004081 156.1097 109.6095  1.00272763 41986
METEOSAT-11 (MSG-4)     
1 40732U 15034A   26166.90255082  .00000064  00000+0  00000+0 0  9999
2 40732   3.1982  71.1177 0001762  10.6881 156.9218  1.00279968  7208
ELEKTRO-L 2             
1 41105U 15074A   26166.96906061 -.00000122  00000+0  00000+0 0  9990
2 41105   6.6903  70.5362 0001047 244.2830 283.7788  1.00270394 38498
SENTINEL-3A             
1 41335U 16011A   26166.88408906  .00000090  00000+0  55337-4 0  9994
2 41335  98.6249 234.2864 0001393 102.1373 257.9964 14.26739625537875
INSAT-3DR               
1 41752U 16054A   26166.84402289 -.00000075  00000+0  00000+0 0  9994
2 41752   0.1031  86.5448 0010633 187.3806   8.0186  1.00270823 35809
HIMAWARI-9              
1 41836U 16064A   26166.57209869 -.00000273  00000+0  00000+0 0  9997
2 41836   0.0518 143.5801 0000824 357.0812 109.9131  1.00269554 35194
GOES 16                 
1 41866U 16071A   26166.66602483 -.00000089  00000+0  00000+0 0  9992
2 41866   0.3375  85.5256 0000204 299.1466  14.3526  1.00270906 35081
FENGYUN 4A              
1 41882U 16077A   26166.92514745 -.00000358  00000+0  00000+0 0  9997
2 41882   2.3186  80.2906 0008724 153.3747 127.3585  1.00269170 34915
CYGFM05                 
1 41884U 16078A   26166.70441262  .00019899  00000+0  27030-3 0  9994
2 41884  34.9572 270.4087 0006844 136.1338 223.9930 15.56617530528521
CYGFM04                 
1 41885U 16078B   26166.61568708  .00025374  00000+0  28651-3 0  9995
2 41885  34.9319 238.7656 0006476 180.9512 179.1202 15.61441990528752
CYGFM02                 
1 41886U 16078C   26166.87462294  .00027379  00000+0  27468-3 0  9999
2 41886  34.9396 231.6121 0007521 184.3943 175.6718 15.64432138528968
CYGFM01                 
1 41887U 16078D   26166.69377457  .00021240  00000+0  28123-3 0  9996
2 41887  34.9401 271.5487 0006627 129.5981 230.5329 15.57292832528475
CYGFM08                 
1 41888U 16078E   26166.91179512  .00023574  00000+0  28176-3 0  9994
2 41888  34.9426 249.7155 0008216 165.1851 194.9116 15.59963222528770
CYGFM07                 
1 41890U 16078G   26166.61504958  .00023429  00000+0  27923-3 0  9998
2 41890  34.9439 240.0344 0006892 179.5306 180.5427 15.60051101528753
CYGFM03                 
1 41891U 16078H   26166.90600629  .00023549  00000+0  28065-3 0  9994
2 41891  34.9394 240.0351 0006371 170.2723 189.8127 15.60055421528775
